     2.100          NAVIGATION                              RINEX VERSION / TYPE
fic2rin                                 11/22/2013 00:27:02 PGM / RUN BY / DATE
                                                            END OF HEADER
13 13 11 21  8  0  0.0  .576796010137D-04 -.386535248253D-11  .000000000000D+00
     .780000000000D+02  .881562500000D+02  .383837416941D-08  .280001828411D+00
     .451877713203D-05  .504965079017D-02  .987946987152D-05  .515368139648D+04
     .374400000000D+06 -.167638063431D-07 -.240279641562D+01 -.596046447754D-07
     .979831670699D+00  .196843750000D+03  .219777568094D+01 -.777246661158D-08
     .607168148133D-11  .100000000000D+01  .176700000000D+04  .000000000000D+00
     .240000000000D+01  .000000000000D+00 -.111758708954D-07  .780000000000D+02
     .367206000000D+06  .400000000000D+01
14 13 11 21  8  0  0.0  .210047699511D-03 -.102318153949D-11  .000000000000D+00
     .270000000000D+02  .842500000000D+02  .408552732147D-08  .551512839329D+00
     .423565506935D-05  .736750185024D-02  .933371484280D-05  .515358906937D+04
     .374400000000D+06 -.968575477600D-07 -.243331395176D+01  .204890966415D-07
     .972468155934D+00  .205718750000D+03 -.198902297641D+01 -.787461372356D-08
    -.485734518507D-10  .100000000000D+01  .176700000000D+04  .000000000000D+00
     .240000000000D+01  .000000000000D+00 -.884756445885D-08  .270000000000D+02
     .367206000000D+06  .400000000000D+01
15 13 11 21  8  0  0.0 -.148233957589D-03 -.193267624127D-11  .000000000000D+00
     .280000000000D+02  .654375000000D+02  .478698511143D-08  .605002469810D-01
     .346451997757D-05  .586331647355D-02  .921264290810D-05  .515360732651D+04
     .374400000000D+06  .875443220139D-07 -.253908230715D+01  .260770320892D-07
     .939120370704D+00  .189468750000D+03  .186314251982D+00 -.820105589261D-08
    -.775032283206D-10  .100000000000D+01  .176700000000D+04  .000000000000D+00
     .240000000000D+01  .000000000000D+00 -.102445483208D-07  .280000000000D+02
     .367206000000D+06  .400000000000D+01
16 13 11 21  8  0  0.0 -.241205096245D-03  .113686837722D-11  .000000000000D+00
     .810000000000D+02 -.102781250000D+03  .410017078857D-08  .172395844860D+01
    -.508688390255D-05  .714879913721D-02  .513158738613D-05  .515375377655D+04
     .374400000000D+06  .558793544769D-08 -.357303824121D+00  .173225998878D-06
     .986789747960D+00  .295375000000D+03  .131238435019D+00 -.800640492747D-08
    -.321799118511D-09  .100000000000D+01  .176700000000D+04  .000000000000D+00
     .340000000000D+01  .000000000000D+00 -.977888703346D-08  .810000000000D+02
     .367206000000D+06  .400000000000D+01
17 13 11 21  8  0  0.0 -.427882187068D-04 -.363797880709D-11  .000000000000D+00
     .115000000000D+03 -.478125000000D+02  .426839208138D-08  .772337908117D+00
    -.239722430706D-05  .874591036700D-02  .102575868368D-04  .515371053314D+04
     .374400000000D+06 -.875443220139D-07  .676641819773D+00  .726431608200D-07
     .967033538154D+00  .188812500000D+03 -.217997276521D+01 -.791497254752D-08
     .115719105880D-09  .100000000000D+01  .176700000000D+04  .000000000000D+00
     .340000000000D+01  .000000000000D+00 -.107102096081D-07  .115000000000D+03
     .367206000000D+06  .400000000000D+01
18 13 11 21  8  0  0.0  .286133959889D-03  .216004991671D-11  .000000000000D+00
     .380000000000D+02 -.184687500000D+02  .524628995761D-08  .231398913683D+01
    -.105798244476D-05  .145792652620D-01  .717304646969D-05  .515364789963D+04
     .374400000000D+06  .391155481339D-07  .272571747655D+01 -.279396772385D-06
     .926678353382D+00  .220906250000D+03 -.207146171199D+01 -.815176812529D-08
    -.357872049664D-09  .100000000000D+01  .176700000000D+04  .000000000000D+00
     .240000000000D+01  .000000000000D+00 -.111758708954D-07  .380000000000D+02
     .367206000000D+06  .400000000000D+01
19 13 11 21  8  0  0.0 -.420070718974D-03 -.261479726760D-11  .000000000000D+00
     .111000000000D+03 -.500625000000D+02  .433232331580D-08 -.929711825201D-01
    -.262260437012D-05  .963618978858D-02  .105910003185D-04  .515376462555D+04
     .374400000000D+06  .856816768646D-07  .728034267950D+00  .987201929092D-07
     .964165370226D+00  .174687500000D+03  .397500459295D+00 -.795818863336D-08
     .206080012631D-09  .100000000000D+01  .176700000000D+04  .000000000000D+00
     .240000000000D+01  .000000000000D+00 -.149011611938D-07  .111000000000D+03
     .367206000000D+06  .400000000000D+01
20 13 11 21  8  0  0.0  .138557516038D-03  .295585778076D-11  .000000000000D+00
     .480000000000D+02 -.156562500000D+02  .532593613233D-08  .279419863946D+01
    -.784173607826D-06  .581435346976D-02  .693462789059D-05  .515363224602D+04
     .374400000000D+06  .596046447754D-07  .267247583994D+01  .372529029846D-08
     .927514779719D+00  .226593750000D+03  .129098443343D+01 -.826462996930D-08
    -.367872466222D-09  .100000000000D+01  .176700000000D+04  .000000000000D+00
     .240000000000D+01  .000000000000D+00 -.791624188423D-08  .480000000000D+02
     .367206000000D+06  .400000000000D+01
21 13 11 21  8  0  0.0 -.329499132931D-03 -.181898940355D-11  .000000000000D+00
     .470000000000D+02  .218125000000D+02  .526236205565D-08 -.294179602717D+01
     .936910510063D-06  .206818537554D-01  .608526170254D-05  .515359416008D+04
     .374400000000D+06  .176951289177D-06  .167912105399D+01 -.203028321266D-06
     .931424185442D+00  .243718750000D+03 -.208917864617D+01 -.802461997192D-08
     .335013954676D-09  .100000000000D+01  .176700000000D+04  .000000000000D+00
     .240000000000D+01  .000000000000D+00 -.111758708954D-07  .470000000000D+02
     .367206000000D+06  .400000000000D+01
22 13 11 21  8  0  0.0  .196380540729D-03  .204636307899D-11  .000000000000D+00
     .330000000000D+02 -.154375000000D+02  .546844206828D-08  .175085885688D+01
    -.821426510811D-06  .670454872306D-02  .726059079170D-05  .515363978195D+04
     .374400000000D+06 -.135973095894D-06  .272797324795D+01 -.121071934700D-06
     .924439823932D+00  .219906250000D+03 -.204660874094D+01 -.842463663422D-08
    -.374658463172D-09  .100000000000D+01  .176700000000D+04  .000000000000D+00
     .240000000000D+01  .000000000000D+00 -.172294676304D-07  .330000000000D+02
     .367206000000D+06  .400000000000D+01
23 13 11 21  8  0  0.0  .282949768007D-04 -.329691829393D-11  .000000000000D+00
     .320000000000D+02  .826875000000D+02  .444054210926D-08 -.474050439041D+00
     .437907874584D-05  .885025062598D-02  .992976129055D-05  .515363590240D+04
     .374400000000D+06  .137835741043D-06 -.249524916631D+01  .577419996262D-07
     .954102265435D+00  .183031250000D+03 -.281085456598D+01 -.804962101331D-08
    -.564309220030D-10  .100000000000D+01  .176700000000D+04  .000000000000D+00
     .240000000000D+01  .000000000000D+00 -.200234353542D-07  .320000000000D+02
     .367206000000D+06  .400000000000D+01
24 13 11 21  8  0  0.0 -.177701003850D-04 -.682121026330D-12  .000000000000D+00
     .390000000000D+02  .582812500000D+02  .476269838550D-08 -.975956693291D+00
     .300258398056D-05  .135792151559D-02  .316649675369D-05  .515364471436D+04
     .374400000000D+06  .745058059692D-08 -.146819592050D+01 -.130385160446D-07
     .957821023673D+00  .317687500000D+03  .722496662200D-01 -.836570560807D-08
     .198579700213D-09  .100000000000D+01  .176700000000D+04  .000000000000D+00
     .240000000000D+01  .000000000000D+00  .279396772385D-08  .390000000000D+02
     .367206000000D+06  .400000000000D+01
25 13 11 21  8  0  0.0  .168405473232D-03  .306954461848D-11  .000000000000D+00
     .980000000000D+02 -.896250000000D+02  .427482092059D-08  .299448896709D+01
    -.466965138912D-05  .279535388108D-02  .465288758278D-05  .515369453239D+04
     .374400000000D+06 -.782310962677D-07 -.416038367016D+00 -.670552253723D-07
     .974890170420D+00  .295687500000D+03  .672093696703D+00 -.800640492747D-08
    -.207151485834D-09  .100000000000D+01  .176700000000D+04  .000000000000D+00
     .240000000000D+01  .000000000000D+00  .558793544769D-08  .980000000000D+02
     .367206000000D+06  .400000000000D+01
26 13 11 21  8  0  0.0  .243455171585D-03 -.102318153949D-10  .000000000000D+00
     .900000000000D+01  .749375000000D+02  .410874257419D-08 -.479245297713D+00
     .410526990891D-05  .211466811597D-01  .951811671257D-05  .515368571281D+04
     .374400000000D+06 -.149011611938D-06 -.241083845374D+01  .247731804848D-06
     .977259436470D+00  .212468750000D+03  .125565026292D+01 -.813141013444D-08
     .585738684082D-10  .100000000000D+01  .176700000000D+04  .000000000000D+00
     .240000000000D+01  .000000000000D+00 -.605359673500D-08  .900000000000D+01
     .367206000000D+06  .400000000000D+01
27 13 11 21  8  0  0.0 -.167638063431D-05 -.341060513165D-11  .000000000000D+00
     .710000000000D+02 -.594062500000D+02  .430589364347D-08  .276069362711D+00
    -.302679836750D-05  .479024718516D-03  .107083469629D-04  .515367531967D+04
     .374400000000D+06  .372529029846D-08  .632303558187D+00 -.931322574615D-08
     .961712533519D+00  .169187500000D+03  .627883336581D+00 -.784461247388D-08
     .167864135072D-09  .100000000000D+01  .176700000000D+04  .000000000000D+00
     .240000000000D+01  .000000000000D+00  .186264514923D-08  .710000000000D+02
     .367206000000D+06  .400000000000D+01
28 13 11 21  8  0  0.0  .310481991619D-03  .295585778076D-11  .000000000000D+00
     .430000000000D+02 -.100281250000D+03  .402766776853D-08  .157790227581D+01
    -.559538602829D-05  .190801275894D-01  .492483377457D-05  .515366106796D+04
     .374400000000D+06 -.121071934700D-06 -.351288395680D+00 -.439584255219D-06
     .985276229007D+00  .303000000000D+03 -.175367992470D+01 -.798390399022D-08
    -.203937066226D-09  .100000000000D+01  .176700000000D+04  .000000000000D+00
     .340000000000D+01  .000000000000D+00 -.107102096081D-07  .430000000000D+02
     .367206000000D+06  .400000000000D+01
